{
  "norad_id": 47746,
  "name": "STARLINK-2160",
  "history": [
    {
      "epoch": "2026-03-28T18:58:10.697376Z",
      "apogee_km": 476.19636042912043,
      "perigee_km": 474.23218995365187,
      "latitude_deg": 9.260904778165422e-06,
      "longitude_deg": 4.767743259410584,
      "height_km": 476.0887378671008,
      "semi_major_axis_km": 6853.351275191386,
      "eccentricity": 0.0001433,
      "inclination_deg": 53.1606,
      "raan_deg": 115.5181,
      "arg_perigee_deg": 88.6317,
      "mean_anomaly_deg": 271.4848,
      "mean_motion_rev_day": 15.30200266
    },
    {
      "epoch": "2026-03-29T04:22:29.341920Z",
      "apogee_km": 476.1503398198438,
      "perigee_km": 474.22181470590294,
      "latitude_deg": 3.5613986963002933e-06,
      "longitude_deg": -138.5173035540183,
      "height_km": 476.08819460238556,
      "semi_major_axis_km": 6853.323077262873,
      "eccentricity": 0.0001407,
      "inclination_deg": 53.1601,
      "raan_deg": 113.697,
      "arg_perigee_deg": 90.2506,
      "mean_anomaly_deg": 269.8656,
      "mean_motion_rev_day": 15.3020971
    },
    {
      "epoch": "2026-03-30T00:45:11.433312Z",
      "apogee_km": 476.05538732510195,
      "perigee_km": 474.40372598494923,
      "latitude_deg": -4.853280801360605e-05,
      "longitude_deg": -88.97293216974553,
      "height_km": 476.08557209721783,
      "semi_major_axis_km": 6853.366556655025,
      "eccentricity": 0.0001205,
      "inclination_deg": 53.1594,
      "raan_deg": 109.7537,
      "arg_perigee_deg": 87.0784,
      "mean_anomaly_deg": 273.0354,
      "mean_motion_rev_day": 15.30195148
    },
    {
      "epoch": "2026-03-30T05:27:21.071808Z",
      "apogee_km": 475.69514069268735,
      "perigee_km": 474.80255571981706,
      "latitude_deg": 6.547458987412313e-05,
      "longitude_deg": -160.6168394973253,
      "height_km": 476.1209862147898,
      "semi_major_axis_km": 6853.385848206252,
      "eccentricity": 6.512e-05,
      "inclination_deg": 53.1592,
      "raan_deg": 108.843,
      "arg_perigee_deg": 86.5751,
      "mean_anomaly_deg": 273.5325,
      "mean_motion_rev_day": 15.30188687
    },
    {
      "epoch": "2026-03-30T11:43:34.068000Z",
      "apogee_km": 476.31047232729725,
      "perigee_km": 474.21593615687743,
      "latitude_deg": 3.371275951748883e-06,
      "longitude_deg": 103.85705261901238,
      "height_km": 476.6354070657205,
      "semi_major_axis_km": 6853.400204242087,
      "eccentricity": 0.00015281,
      "inclination_deg": 53.1599,
      "raan_deg": 107.6286,
      "arg_perigee_deg": 116.9283,
      "mean_anomaly_deg": 243.1874,
      "mean_motion_rev_day": 15.30183879
    },
    {
      "epoch": "2026-03-30T17:59:46.751424Z",
      "apogee_km": 475.98403227892777,
      "perigee_km": 474.47546918975695,
      "latitude_deg": 7.570907061974303e-06,
      "longitude_deg": 8.334200903356974,
      "height_km": 476.2202914763394,
      "semi_major_axis_km": 6853.3667507343425,
      "eccentricity": 0.00011006,
      "inclination_deg": 53.1594,
      "raan_deg": 106.4161,
      "arg_perigee_deg": 97.0283,
      "mean_anomaly_deg": 263.0843,
      "mean_motion_rev_day": 15.30195083
    },
    {
      "epoch": "2026-03-31T17:30:34.670880Z",
      "apogee_km": 476.01344594529473,
      "perigee_km": 474.4412841599524,
      "latitude_deg": 6.4199973362965395e-06,
      "longitude_deg": 10.119379591490725,
      "height_km": 476.17075027885903,
      "semi_major_axis_km": 6853.364365052624,
      "eccentricity": 0.0001147,
      "inclination_deg": 53.1579,
      "raan_deg": 101.8666,
      "arg_perigee_deg": 93.3087,
      "mean_anomaly_deg": 266.8045,
      "mean_motion_rev_day": 15.30195882
    },
    {
      "epoch": "2026-04-01T17:01:23.558016Z",
      "apogee_km": 476.0871875034991,
      "perigee_km": 474.43551850042604,
      "latitude_deg": 4.823907651519418e-06,
      "longitude_deg": 11.898114849212217,
      "height_km": 476.06998290636113,
      "semi_major_axis_km": 6853.398353001962,
      "eccentricity": 0.0001205,
      "inclination_deg": 53.1583,
      "raan_deg": 97.3147,
      "arg_perigee_deg": 83.7884,
      "mean_anomaly_deg": 276.3254,
      "mean_motion_rev_day": 15.30184499
    }
  ]
}